{"type": "FeatureCollection", "features": [{"type": "Feature", "properties": {"norad_id": 28054, "name": "DMSP 5D-3 F16 (USA 172)", "group": "weather", "lat": 46.370934922673996, "lon": -15.902877581684365, "alt_km": 837.2664001281637, "timestamp": "2025-12-02T07:10:08.751466+00:00", "meta": {"OBJECT_NAME": "DMSP 5D-3 F16 (USA 172)", "OBJECT_ID": "2003-048A", "EPOCH": "2025-12-01T19:36:51.155136", "MEAN_MOTION": 14.14417747, "ECCENTRICITY": 0.0006957, "INCLINATION": 99.0054, "RA_OF_ASC_NODE": 353.188, "ARG_OF_PERICENTER": 353.9696, "MEAN_ANOMALY": 123.0126, "EPHEMERIS_TYPE": 0, "CLASSIFICATION_TYPE": "U", "NORAD_CAT_ID": 28054, "ELEMENT_SET_NO": 999, "REV_AT_EPOCH": 14158, "BSTAR": 0.00010876, "MEAN_MOTION_DOT": 1.63e-06, "MEAN_MOTION_DDOT": 0}, "tle": {"line1": "1 28054U 03048A   25335.81725874  .00000163  00000+0  10876-3 0  9998", "line2": "2 28054  99.0054 353.1880 0006957 353.9696 123.0126 14.14417747141588"}}, "geometry": {"type": "Point", "coordinates": [-15.902877581684365, 46.370934922673996]}}, {"type": "Feature", "properties": {"norad_id": 28912, "name": "METEOSAT-9 (MSG-2)", "group": "weather", "lat": 1.7576493638320638, "lon": -135.34928000162822, "alt_km": 35769.92705012288, "timestamp": "2025-12-02T07:10:08.751516+00:00", "meta": {"OBJECT_NAME": "METEOSAT-9 (MSG-2)", "OBJECT_ID": "2005-049B", "EPOCH": "2025-12-01T19:10:06.009024", "MEAN_MOTION": 1.00270834, "ECCENTRICITY": 0.0003965, "INCLINATION": 8.913, "RA_OF_ASC_NODE": 56.0742, "ARG_OF_PERICENTER": 184.2976, "MEAN_ANOMALY": 163.6684, "EPHEMERIS_TYPE": 0, "CLASSIFICATION_TYPE": "U", "NORAD_CAT_ID": 28912, "ELEMENT_SET_NO": 999, "REV_AT_EPOCH": 501, "BSTAR": 0, "MEAN_MOTION_DOT": 1.42e-06, "MEAN_MOTION_DDOT": 0}, "tle": {"line1": "1 28912U 05049B   25335.79868066  .00000142  00000+0  00000+0 0  9993", "line2": "2 28912   8.9130  56.0742 0003965 184.2976 163.6684  1.00270834  5014"}}, "geometry": {"type": "Point", "coordinates": [-135.34928000162822, 1.7576493638320638]}}, {"type": "Feature", "properties": {"norad_id": 29522, "name": "DMSP 5D-3 F17 (USA 191)", "group": "weather", "lat": -30.430518057195766, "lon": -12.910712980013516, "alt_km": 846.4428466343443, "timestamp": "2025-12-02T07:10:08.751535+00:00", "meta": {"OBJECT_NAME": "DMSP 5D-3 F17 (USA 191)", "OBJECT_ID": "2006-050A", "EPOCH": "2025-12-01T19:26:03.401376", "MEAN_MOTION": 14.14911795, "ECCENTRICITY": 0.0009132, "INCLINATION": 98.7395, "RA_OF_ASC_NODE": 341.4263, "ARG_OF_PERICENTER": 259.046, "MEAN_ANOMALY": 100.9686, "EPHEMERIS_TYPE": 0, "CLASSIFICATION_TYPE": "U", "NORAD_CAT_ID": 29522, "ELEMENT_SET_NO": 999, "REV_AT_EPOCH": 98450, "BSTAR": 0.00012476, "MEAN_MOTION_DOT": 1.98e-06, "MEAN_MOTION_DDOT": 0}, "tle": {"line1": "1 29522U 06050A   25335.80976159  .00000198  00000+0  12476-3 0  9994", "line2": "2 29522  98.7395 341.4263 0009132 259.0460 100.9686 14.14911795984505"}}, "geometry": {"type": "Point", "coordinates": [-12.910712980013516, -30.430518057195766]}}, {"type": "Feature", "properties": {"norad_id": 32958, "name": "FENGYUN 3A", "group": "weather", "lat": -49.93231785620029, "lon": 85.59677141640415, "alt_km": 836.1285199899949, "timestamp": "2025-12-02T07:10:08.751548+00:00", "meta": {"OBJECT_NAME": "FENGYUN 3A", "OBJECT_ID": "2008-026A", "EPOCH": "2025-12-01T19:56:06.687744", "MEAN_MOTION": 14.19508753, "ECCENTRICITY": 0.0008432, "INCLINATION": 98.6681, "RA_OF_ASC_NODE": 275.588, "ARG_OF_PERICENTER": 343.8626, "MEAN_ANOMALY": 16.2281, "EPHEMERIS_TYPE": 0, "CLASSIFICATION_TYPE": "U", "NORAD_CAT_ID": 32958, "ELEMENT_SET_NO": 999, "REV_AT_EPOCH": 90740, "BSTAR": 7.9536e-05, "MEAN_MOTION_DOT": 1.24e-06, "MEAN_MOTION_DDOT": 0}, "tle": {"line1": "1 32958U 08026A   25335.83063296  .00000124  00000+0  79536-4 0  9998", "line2": "2 32958  98.6681 275.5880 0008432 343.8626  16.2281 14.19508753907404"}}, "geometry": {"type": "Point", "coordinates": [85.59677141640415, -49.93231785620029]}}, {"type": "Feature", "properties": {"norad_id": 35491, "name": "GOES 14", "group": "weather", "lat": -0.28036610114270155, "lon": 70.56135745154586, "alt_km": 35802.63847600503, "timestamp": "2025-12-02T07:10:08.751564+00:00", "meta": {"OBJECT_NAME": "GOES 14", "OBJECT_ID": "2009-033A", "EPOCH": "2025-12-01T19:46:16.523904", "MEAN_MOTION": 1.00272668, "ECCENTRICITY": 0.0004117, "INCLINATION": 1.1684, "RA_OF_ASC_NODE": 85.5386, "ARG_OF_PERICENTER": 148.9484, "MEAN_ANOMALY": 24.6747, "EPHEMERIS_TYPE": 0, "CLASSIFICATION_TYPE": "U", "NORAD_CAT_ID": 35491, "ELEMENT_SET_NO": 999, "REV_AT_EPOCH": 461, "BSTAR": 0, "MEAN_MOTION_DOT": -4.6e-07, "MEAN_MOTION_DDOT": 0}, "tle": {"line1": "1 35491U 09033A   25335.82380236 -.00000046  00000+0  00000+0 0  9996", "line2": "2 35491   1.1684  85.5386 0004117 148.9484  24.6747  1.00272668  4613"}}, "geometry": {"type": "Point", "coordinates": [70.56135745154586, -0.28036610114270155]}}, {"type": "Feature", "properties": {"norad_id": 35951, "name": "DMSP 5D-3 F18 (USA 210)", "group": "weather", "lat": -22.102265471163076, "lon": 129.11134118389762, "alt_km": 851.7536218211662, "timestamp": "2025-12-02T07:10:08.751576+00:00", "meta": {"OBJECT_NAME": "DMSP 5D-3 F18 (USA 210)", "OBJECT_ID": "2009-057A", "EPOCH": "2025-12-01T20:01:59.259360", "MEAN_MOTION": 14.14758758, "ECCENTRICITY": 0.0012098, "INCLINATION": 98.8822, "RA_OF_ASC_NODE": 312.2908, "ARG_OF_PERICENTER": 91.0854, "MEAN_ANOMALY": 269.1705, "EPHEMERIS_TYPE": 0, "CLASSIFICATION_TYPE": "U", "NORAD_CAT_ID": 35951, "ELEMENT_SET_NO": 999, "REV_AT_EPOCH": 83168, "BSTAR": 0.00017321, "MEAN_MOTION_DOT": 2.9e-06, "MEAN_MOTION_DDOT": 0}, "tle": {"line1": "1 35951U 09057A   25335.83471365  .00000290  00000+0  17321-3 0  9996", "line2": "2 35951  98.8822 312.2908 0012098  91.0854 269.1705 14.14758758831680"}}, "geometry": {"type": "Point", "coordinates": [129.11134118389762, -22.102265471163076]}}, {"type": "Feature", "properties": {"norad_id": 36411, "name": "EWS-G2 (GOES 15)", "group": "weather", "lat": 0.3165198738867598, "lon": -119.58441914373894, "alt_km": 35763.08856576487, "timestamp": "2025-12-02T07:10:08.751589+00:00", "meta": {"OBJECT_NAME": "EWS-G2 (GOES 15)", "OBJECT_ID": "2010-008A", "EPOCH": "2025-12-01T19:09:54.389088", "MEAN_MOTION": 1.00267505, "ECCENTRICITY": 0.0005886, "INCLINATION": 0.7843, "RA_OF_ASC_NODE": 86.0617, "ARG_OF_PERICENTER": 169.1247, "MEAN_ANOMALY": 164.7264, "EPHEMERIS_TYPE": 0, "CLASSIFICATION_TYPE": "U", "NORAD_CAT_ID": 36411, "ELEMENT_SET_NO": 999, "REV_AT_EPOCH": 5765, "BSTAR": 0, "MEAN_MOTION_DOT": 5.9e-07, "MEAN_MOTION_DDOT": 0}, "tle": {"line1": "1 36411U 10008A   25335.79854617  .00000059  00000+0  00000+0 0  9991", "line2": "2 36411   0.7843  86.0617 0005886 169.1247 164.7264  1.00267505 57653"}}, "geometry": {"type": "Point", "coordinates": [-119.58441914373894, 0.3165198738867598]}}, {"type": "Feature", "properties": {"norad_id": 36744, "name": "COMS 1", "group": "weather", "lat": -3.2599919685027534, "lon": -52.97765357985618, "alt_km": 35784.27637726757, "timestamp": "2025-12-02T07:10:08.751602+00:00", "meta": {"OBJECT_NAME": "COMS 1", "OBJECT_ID": "2010-032A", "EPOCH": "2025-12-01T12:42:46.444608", "MEAN_MOTION": 1.00270535, "ECCENTRICITY": 0.00010192, "INCLINATION": 4.3122, "RA_OF_ASC_NODE": 78.1218, "ARG_OF_PERICENTER": 177.7332, "MEAN_ANOMALY": 133.6625, "EPHEMERIS_TYPE": 0, "CLASSIFICATION_TYPE": "U", "NORAD_CAT_ID": 36744, "ELEMENT_SET_NO": 999, "REV_AT_EPOCH": 4910, "BSTAR": 0, "MEAN_MOTION_DOT": -3.23e-06, "MEAN_MOTION_DDOT": 0}, "tle": {"line1": "1 36744U 10032A   25335.52970422 -.00000323  00000+0  00000+0 0  9996", "line2": "2 36744   4.3122  78.1218 0001019 177.7332 133.6625  1.00270535 49109"}}, "geometry": {"type": "Point", "coordinates": [-52.97765357985618, -3.2599919685027534]}}, {"type": "Feature", "properties": {"norad_id": 37214, "name": "FENGYUN 3B", "group": "weather", "lat": 13.804146883861497, "lon": -161.56793817000994, "alt_km": 856.1908431398124, "timestamp": "2025-12-02T07:10:08.751613+00:00", "meta": {"OBJECT_NAME": "FENGYUN 3B", "OBJECT_ID": "2010-059A", "EPOCH": "2025-12-01T21:01:03.677664", "MEAN_MOTION": 14.1478481, "ECCENTRICITY": 0.0022509, "INCLINATION": 98.9923, "RA_OF_ASC_NODE": 15.7764, "ARG_OF_PERICENTER": 28.3559, "MEAN_ANOMALY": 144.272, "EPHEMERIS_TYPE": 0, "CLASSIFICATION_TYPE": "U", "NORAD_CAT_ID": 37214, "ELEMENT_SET_NO": 999, "REV_AT_EPOCH": 77952, "BSTAR": 8.0404e-05, "MEAN_MOTION_DOT": 1.1e-06, "MEAN_MOTION_DDOT": 0}, "tle": {"line1": "1 37214U 10059A   25335.87573701  .00000110  00000+0  80404-4 0  9999", "line2": "2 37214  98.9923  15.7764 0022509  28.3559 144.2720 14.14784810779527"}}, "geometry": {"type": "Point", "coordinates": [-161.56793817000994, 13.804146883861497]}}, {"type": "Feature", "properties": {"norad_id": 37849, "name": "SUOMI NPP", "group": "weather", "lat": -9.401448514488825, "lon": 92.26937919224572, "alt_km": 830.2304298627914, "timestamp": "2025-12-02T07:10:08.751624+00:00", "meta": {"OBJECT_NAME": "SUOMI NPP", "OBJECT_ID": "2011-061A", "EPOCH": "2025-12-01T20:07:47.072928", "MEAN_MOTION": 14.19509058, "ECCENTRICITY": 0.0001835, "INCLINATION": 98.7756, "RA_OF_ASC_NODE": 273.2793, "ARG_OF_PERICENTER": 139.8698, "MEAN_ANOMALY": 220.2614, "EPHEMERIS_TYPE": 0, "CLASSIFICATION_TYPE": "U", "NORAD_CAT_ID": 37849, "ELEMENT_SET_NO": 999, "REV_AT_EPOCH": 73044, "BSTAR": 7.4992e-05, "MEAN_MOTION_DOT": 1.14e-06, "MEAN_MOTION_DDOT": 0}, "tle": {"line1": "1 37849U 11061A   25335.83873927  .00000114  00000+0  74992-4 0  9995", "line2": "2 37849  98.7756 273.2793 0001835 139.8698 220.2614 14.19509058730446"}}, "geometry": {"type": "Point", "coordinates": [92.26937919224572, -9.401448514488825]}}]}